[{"norad_id":"45159","company":"ONEWEB","tle_line2":"2 45159  87.8820 111.0909 0001981  76.5405 283.5943 13.10407320259030","launch_date":"2020-02-06","type":"LEO","tle_line1":"1 45159U 20008AE  25157.91918581 -.00001195  00000+0 -34597-2 0  9993","satellite_name":"ONEWEB-0056"},{"norad_id":"45160","company":"ONEWEB","tle_line2":"2 45160  87.8824 111.0563 0001940  76.2782 283.8562 13.10375202259237","launch_date":"2020-02-06","type":"LEO","tle_line1":"1 45160U 20008AF  25158.15579002  .00000459  00000+0  12783-2 0  9996","satellite_name":"ONEWEB-0057"},{"norad_id":"45161","company":"ONEWEB","tle_line2":"2 45161  87.8818 111.0728 0001996  84.6984 275.4371 13.10376341259300","launch_date":"2020-02-06","type":"LEO","tle_line1":"1 45161U 20008AG  25158.14263805 -.00000088  00000+0 -28850-3 0  9990","satellite_name":"ONEWEB-0058"},{"norad_id":"45162","company":"ONEWEB","tle_line2":"2 45162  87.8821 110.9783 0002047  83.4778 276.6582 13.10376583259260","launch_date":"2020-02-06","type":"LEO","tle_line1":"1 45162U 20008AH  25158.59731516 -.00000379  00000+0 -11207-2 0  9999","satellite_name":"ONEWEB-0059"},{"norad_id":"45163","company":"ONEWEB","tle_line2":"2 45163  87.8818 111.0149 0002375  86.4996 273.6403 13.10372754259090","launch_date":"2020-02-06","type":"LEO","tle_line1":"1 45163U 20008AJ  25158.31763329  .00000683  00000+0  19190-2 0  9992","satellite_name":"ONEWEB-0062"},{"norad_id":"45164","company":"ONEWEB","tle_line2":"2 45164  87.8826 110.9803 0001933  77.3412 282.7931 13.10376663258826","launch_date":"2020-02-06","type":"LEO","tle_line1":"1 45164U 20008AK  25158.60230141 -.00000144  00000+0 -44967-3 0  9991","satellite_name":"ONEWEB-0065"},{"norad_id":"45424","company":"ONEWEB","tle_line2":"2 45424  87.8838  95.7389 0001642  84.4612 275.6703 13.11416590253575","launch_date":"2020-03-21","type":"LEO","tle_line1":"1 45424U 20020A   25158.52954952 -.00000218  00000+0 -64957-3 0  9991","satellite_name":"ONEWEB-0066"},{"norad_id":"45425","company":"ONEWEB","tle_line2":"2 45425  87.8827  95.6485 0001806  78.7146 281.4185 13.11418670253637","launch_date":"2020-03-21","type":"LEO","tle_line1":"1 45425U 20020B   25158.56698999  .00000148  00000+0  38113-3 0  9997","satellite_name":"ONEWEB-0067"}]